{"type": "FeatureCollection", "features": [ {"type": "Feature", "properties": {"norad_id": 33825, "name": "COSMOS 2251 DEB", "group": "cosmos-2251-debris", "lat": -37.21893598372794, "lon": -122.25524859142553, "alt_km": 722.0999675582225, "timestamp": "2025-12-03T19:33:07.370004+00:00", "meta": {"OBJECT_NAME": "COSMOS 2251 DEB", "OBJECT_ID": "1993-036BS", "EPOCH": "2025-12-03T12:31:51.053088", "MEAN_MOTION": 14.69626721, "ECCENTRICITY": 0.0084101, "INCLINATION": 73.9862, "RA_OF_ASC_NODE": 45.7131, "ARG_OF_PERICENTER": 15.0887, "MEAN_ANOMALY": 97.0717, "EPHEMERIS_TYPE": 0, "CLASSIFICATION_TYPE": "U", "NORAD_CAT_ID": 33825, "ELEMENT_SET_NO": 999, "REV_AT_EPOCH": 88744, "BSTAR": 0.0011434, "MEAN_MOTION_DOT": 7.152e-05, "MEAN_MOTION_DDOT": 0}, "tle": {"line1": "1 33825U 93036BS  25337.52211867  .00007152  00000+0  11434-2 0  9993", "line2": "2 33825  73.9862  45.7131 0084101  15.0887  97.0717 14.69626721887448"}}, "geometry": {"type": "Point", "coordinates": [-122.25524859142553, -37.21893598372794]}}, {"type": "Feature", "properties": {"norad_id": 33826, "name": "COSMOS 2251 DEB", "group": "cosmos-2251-debris", "lat": -30.741291648580706, "lon": 56.871254725124196, "alt_km": 775.5876123725311, "timestamp": "2025-12-03T19:33:07.370015+00:00", "meta": {"OBJECT_NAME": "COSMOS 2251 DEB", "OBJECT_ID": "1993-036BT", "EPOCH": "2025-12-03T08:25:03.821952", "MEAN_MOTION": 14.51558516, "ECCENTRICITY": 0.008438, "INCLINATION": 74.0654, "RA_OF_ASC_NODE": 67.5256, "ARG_OF_PERICENTER": 114.8107, "MEAN_ANOMALY": 310.3912, "EPHEMERIS_TYPE": 0, "CLASSIFICATION_TYPE": "U", "NORAD_CAT_ID": 33826, "ELEMENT_SET_NO": 999, "REV_AT_EPOCH": 87633, "BSTAR": 0.0020718, "MEAN_MOTION_DOT": 8.667e-05, "MEAN_MOTION_DDOT": 0}, "tle": {"line1": "1 33826U 93036BT  25337.35073868  .00008667  00000+0  20718-2 0  9999", "line2": "2 33826  74.0654  67.5256 0084380 114.8107 310.3912 14.51558516876333"}}, "geometry": {"type": "Point", "coordinates": [56.871254725124196, -30.741291648580706]}}, {"type": "Feature", "properties": {"norad_id": 33828, "name": "COSMOS 2251 DEB", "group": "cosmos-2251-debris", "lat": 70.59546312672047, "lon": 20.39057053616238, "alt_km": 751.2057502332636, "timestamp": "2025-12-03T19:33:07.370027+00:00", "meta": {"OBJECT_NAME": "COSMOS 2251 DEB", "OBJECT_ID": "1993-036BV", "EPOCH": "2025-12-03T04:27:28.281600", "MEAN_MOTION": 14.4427696, "ECCENTRICITY": 0.00293184, "INCLINATION": 74.0475, "RA_OF_ASC_NODE": 255.8546, "ARG_OF_PERICENTER": 330.2883, "MEAN_ANOMALY": 101.9162, "EPHEMERIS_TYPE": 0, "CLASSIFICATION_TYPE": "U", "NORAD_CAT_ID": 33828, "ELEMENT_SET_NO": 999, "REV_AT_EPOCH": 88175, "BSTAR": 0.00074798734, "MEAN_MOTION_DOT": 2.559e-05, "MEAN_MOTION_DDOT": 0}, "tle": {"line1": "1 33828U 93036BV  25337.18574400  .00002559  00000+0  74799-3 0  9993", "line2": "2 33828  74.0475 255.8546 0029318 330.2883 101.9162 14.44276960881750"}}, "geometry": {"type": "Point", "coordinates": [20.39057053616238, 70.59546312672047]}}, {"type": "Feature", "properties": {"norad_id": 33830, "name": "COSMOS 2251 DEB", "group": "cosmos-2251-debris", "lat": 12.051052684885082, "lon": -108.63483843979743, "alt_km": 611.1517265194752, "timestamp": "2025-12-03T19:33:07.370038+00:00", "meta": {"OBJECT_NAME": "COSMOS 2251 DEB", "OBJECT_ID": "1993-036BX", "EPOCH": "2025-12-03T12:08:48.927840", "MEAN_MOTION": 14.76692997, "ECCENTRICITY": 0.0042183, "INCLINATION": 74.0333, "RA_OF_ASC_NODE": 248.4653, "ARG_OF_PERICENTER": 10.5241, "MEAN_ANOMALY": 162.5246, "EPHEMERIS_TYPE": 0, "CLASSIFICATION_TYPE": "U", "NORAD_CAT_ID": 33830, "ELEMENT_SET_NO": 999, "REV_AT_EPOCH": 89335, "BSTAR": 0.0014629, "MEAN_MOTION_DOT": 0.00010371, "MEAN_MOTION_DDOT": 0}, "tle": {"line1": "1 33830U 93036BX  25337.50612185  .00010371  00000+0  14629-2 0  9991", "line2": "2 33830  74.0333 248.4653 0042183  10.5241 162.5246 14.76692997893356"}}, "geometry": {"type": "Point", "coordinates": [-108.63483843979743, 12.051052684885082]}}, {"type": "Feature", "properties": {"norad_id": 33832, "name": "COSMOS 2251 DEB", "group": "cosmos-2251-debris", "lat": -42.25340823219354, "lon": 62.05404711341675, "alt_km": 683.1997095093566, "timestamp": "2025-12-03T19:33:07.370061+00:00", "meta": {"OBJECT_NAME": "COSMOS 2251 DEB", "OBJECT_ID": "1993-036BZ", "EPOCH": "2025-12-03T11:08:10.798368", "MEAN_MOTION": 14.60447623, "ECCENTRICITY": 0.0025654, "INCLINATION": 74.0553, "RA_OF_ASC_NODE": 227.6694, "ARG_OF_PERICENTER": 260.5825, "MEAN_ANOMALY": 281.0224, "EPHEMERIS_TYPE": 0, "CLASSIFICATION_TYPE": "U", "NORAD_CAT_ID": 33832, "ELEMENT_SET_NO": 999, "REV_AT_EPOCH": 88289, "BSTAR": 0.0019398, "MEAN_MOTION_DOT": 9.427e-05, "MEAN_MOTION_DDOT": 0}, "tle": {"line1": "1 33832U 93036BZ  25337.46401387  .00009427  00000+0  19398-2 0  9996", "line2": "2 33832  74.0553 227.6694 0025654 260.5825 281.0224 14.60447623882892"}}, "geometry": {"type": "Point", "coordinates": [62.05404711341675, -42.25340823219354]}}, {"type": "Feature", "properties": {"norad_id": 33835, "name": "COSMOS 2251 DEB", "group": "cosmos-2251-debris", "lat": 7.449703933252461, "lon": 120.31963878254682, "alt_km": 726.3243090019268, "timestamp": "2025-12-03T19:33:07.370074+00:00", "meta": {"OBJECT_NAME": "COSMOS 2251 DEB", "OBJECT_ID": "1993-036CC", "EPOCH": "2025-12-02T19:28:26.300928", "MEAN_MOTION": 14.62061225, "ECCENTRICITY": 0.00557211, "INCLINATION": 74.0555, "RA_OF_ASC_NODE": 120.095, "ARG_OF_PERICENTER": 176.3218, "MEAN_ANOMALY": 313.2995, "EPHEMERIS_TYPE": 0, "CLASSIFICATION_TYPE": "U", "NORAD_CAT_ID": 33835, "ELEMENT_SET_NO": 999, "REV_AT_EPOCH": 88644, "BSTAR": 0.0016115926, "MEAN_MOTION_DOT": 8.252e-05, "MEAN_MOTION_DDOT": 0}, "tle": {"line1": "1 33835U 93036CC  25336.81141552  .00008252  00000+0  16116-2 0  9992", "line2": "2 33835  74.0555 120.0950 0055721 176.3218 313.2995 14.62061225886446"}}, "geometry": {"type": "Point", "coordinates": [120.31963878254682, 7.449703933252461]}}, {"type": "Feature", "properties": {"norad_id": 33836, "name": "COSMOS 2251 DEB", "group": "cosmos-2251-debris", "lat": -15.608082467050039, "lon": 101.15614381777395, "alt_km": 628.7672319569338, "timestamp": "2025-12-03T19:33:07.370084+00:00", "meta": {"OBJECT_NAME": "COSMOS 2251 DEB", "OBJECT_ID": "1993-036CD", "EPOCH": "2025-12-03T06:13:05.961792", "MEAN_MOTION": 14.79308618, "ECCENTRICITY": 0.002242, "INCLINATION": 73.9973, "RA_OF_ASC_NODE": 277.6529, "ARG_OF_PERICENTER": 134.2793, "MEAN_ANOMALY": 344.1464, "EPHEMERIS_TYPE": 0, "CLASSIFICATION_TYPE": "U", "NORAD_CAT_ID": 33836, "ELEMENT_SET_NO": 999, "REV_AT_EPOCH": 63948, "BSTAR": 0.0017963, "MEAN_MOTION_DOT": 0.00013419, "MEAN_MOTION_DDOT": 0}, "tle": {"line1": "1 33836U 93036CD  25337.25909678  .00013419  00000+0  17963-2 0  9995", "line2": "2 33836  73.9973 277.6529 0022420 134.2793 344.1464 14.79308618639483"}}, "geometry": {"type": "Point", "coordinates": [101.15614381777395, -15.608082467050039]}}, {"type": "Feature", "properties": {"norad_id": 33837, "name": "COSMOS 2251 DEB", "group": "cosmos-2251-debris", "lat": 18.79255693757538, "lon": 77.99883751634334, "alt_km": 720.6836032408746, "timestamp": "2025-12-03T19:33:07.370094+00:00", "meta": {"OBJECT_NAME": "COSMOS 2251 DEB", "OBJECT_ID": "1993-036CE", "EPOCH": "2025-12-03T07:52:36.048000", "MEAN_MOTION": 14.50667168, "ECCENTRICITY": 0.0035633, "INCLINATION": 74.0128, "RA_OF_ASC_NODE": 73.3158, "ARG_OF_PERICENTER": 296.5894, "MEAN_ANOMALY": 63.1617, "EPHEMERIS_TYPE": 0, "CLASSIFICATION_TYPE": "U", "NORAD_CAT_ID": 33837, "ELEMENT_SET_NO": 999, "REV_AT_EPOCH": 88659, "BSTAR": 0.00042701, "MEAN_MOTION_DOT": 1.662e-05, "MEAN_MOTION_DDOT": 0}, "tle": {"line1": "1 33837U 93036CE  25337.32819500  .00001662  00000+0  42701-3 0  9994", "line2": "2 33837  74.0128  73.3158 0035633 296.5894  63.1617 14.50667168886592"}}, "geometry": {"type": "Point", "coordinates": [77.99883751634334, 18.79255693757538]}}, {"type": "Feature", "properties": {"norad_id": 33838, "name": "COSMOS 2251 DEB", "group": "cosmos-2251-debris", "lat": -31.430182834299202, "lon": 156.45197082572034, "alt_km": 721.4040111491668, "timestamp": "2025-12-03T19:33:07.370105+00:00", "meta": {"OBJECT_NAME": "COSMOS 2251 DEB", "OBJECT_ID": "1993-036CF", "EPOCH": "2025-12-03T11:31:16.782240", "MEAN_MOTION": 14.48318154, "ECCENTRICITY": 0.002738, "INCLINATION": 74.0356, "RA_OF_ASC_NODE": 167.1536, "ARG_OF_PERICENTER": 290.2736, "MEAN_ANOMALY": 92.8437, "EPHEMERIS_TYPE": 0, "CLASSIFICATION_TYPE": "U", "NORAD_CAT_ID": 33838, "ELEMENT_SET_NO": 999, "REV_AT_EPOCH": 88435, "BSTAR": 0.00053612, "MEAN_MOTION_DOT": 1.986e-05, "MEAN_MOTION_DDOT": 0}, "tle": {"line1": "1 33838U 93036CF  25337.48005535  .00001986  00000+0  53612-3 0  9999", "line2": "2 33838  74.0356 167.1536 0027380 290.2736  92.8437 14.48318154884350"}}, "geometry": {"type": "Point", "coordinates": [156.45197082572034, -31.430182834299202]}}, {"type": "Feature", "properties": {"norad_id": 33839, "name": "COSMOS 2251 DEB", "group": "cosmos-2251-debris", "lat": 71.77367190617073, "lon": -16.723255502782933, "alt_km": 702.3691557834672, "timestamp": "2025-12-03T19:33:07.370116+00:00", "meta": {"OBJECT_NAME": "COSMOS 2251 DEB", "OBJECT_ID": "1993-036CG", "EPOCH": "2025-12-03T03:25:22.042272", "MEAN_MOTION": 14.64373974, "ECCENTRICITY": 0.00848223, "INCLINATION": 74.0399, "RA_OF_ASC_NODE": 224.9194, "ARG_OF_PERICENTER": 339.2319, "MEAN_ANOMALY": 177.3871, "EPHEMERIS_TYPE": 0, "CLASSIFICATION_TYPE": "U", "NORAD_CAT_ID": 33839, "ELEMENT_SET_NO": 999, "REV_AT_EPOCH": 89439, "BSTAR": 0.00040044968, "MEAN_MOTION_DOT": 2.197e-05, "MEAN_MOTION_DDOT": 0}, "tle": {"line1": "1 33839U 93036CG  25337.14261623  .00002197  00000+0  40045-3 0  9996", "line2": "2 33839  74.0399 224.9194 0084822 339.2319 177.3871 14.64373974894390"}}, "geometry": {"type": "Point", "coordinates": [-16.723255502782933, 71.77367190617073]}}]}